#aV2013  8  5  0  0  0.00000000     288 DD+AD WGS84 FIT  NGA
## 1752  86400.00000000   300.00000000 56509 0.0000000000000
+   31     1  2  3  4  5  6  7  8  9 10 11 12 13 14 15 16 17
+         18 19 20 21 22 23 24 25 26 27 28 29 31 32  0  0  0
+          0  0  0  0  0  0  0  0  0  0  0  0  0  0  0  0  0
+          0  0  0  0  0  0  0  0  0  0  0  0  0  0  0  0  0
+          0  0  0  0  0  0  0  0  0  0  0  0  0  0  0  0  0
++         2  2  2  2  2  2  2  2  2  2  2  2  2  2  2  2  2
++         2  2  2  2  2  2  2  2  2  2  2  2  2  2  2  0  0
++         0  0  0  0  0  0  0  0  0  0  0  0  0  0  0  0  0
++         0  0  0  0  0  0  0  0  0  0  0  0  0  0  0  0  0
++         0  0  0  0  0  0  0  0  0  0  0  0  0  0  0  0  0
%c cc cc ccc ccc cccc cccc cccc cccc ccccc ccccc ccccc ccccc
%c cc cc ccc ccc cccc cccc cccc cccc ccccc ccccc ccccc ccccc
%f  0.0000000  0.000000000  0.00000000000  0.000000000000000
%f  0.0000000  0.000000000  0.00000000000  0.000000000000000
%i    0    0    0    0      0      0      0      0         0
%i    0    0    0    0      0      0      0      0         0
/*      NGA, ST. LOUIS,MO.                                  
/*   EPHEMERIS COMPUTED FROM  1 DAYS OF DATA
/*   EPOCHA SMOOTHER  
/* CCCCCCCCCCCCCCCCCCCCCCCCCCCCCCCCCCCCCCCCCCCCCCCCCCCCCCCCC
*  2013  8  5 15  5  0.00000000                                                 
P  1   2099.987883 -16622.344786 -20607.790667     59.301873                    
V  1  24358.483395  -9542.569246  10287.882612      0.047711                    
P  2 -21859.332945  13897.133907   4700.619653    445.121316                    
V  2  -6873.324744  -1038.236506 -30823.049509      0.017805                    
P  3   9162.350083 -20615.248968  13326.410991    242.036915                    
V  3   3692.391646  17830.883218  24297.973752      0.049704                    
P  4 -25237.636617   5545.821206  -7018.424091    291.769904                    
V  4   6531.441795  -6245.774012 -29373.717437      0.102856                    
P  5 -12887.121950   9442.621085  21210.828746   -399.300931                    
V  5 -21483.441120 -16392.360686  -5603.040442     -0.002940                    
P  6  13501.145780 -14470.756160  17599.371052    108.165598                    
V  6   1091.883250  22496.894598  18103.410163     -0.186716                    
P  7 -14165.978710  -9254.173785  20602.670771    244.014106                    
V  7  23706.326821 -10508.065266  11298.898551      0.041958                    
P  8 -22557.744503  -2750.228276  14364.495110      7.798829                    
V  8  16713.275156  -5979.791225  24721.490602      0.002091                    
P  9 -22756.596702    400.241028  13213.416432    259.314428                    
V  9  15429.454239  -8696.750650  25673.318670      0.024775                    
P 10 -22783.816893  -6161.162691  12284.434016    -89.491710                    
V 10 -11130.308295 -11713.018885 -25474.010353     -0.014434                    
P 11   6731.165819 -21367.022161 -14532.199679   -407.451331                    
V 11  16034.616640  -9026.079704  21638.604222     -0.035093                    
P 12   3550.126659  18645.425902 -18715.197613    148.806858                    
V 12 -19073.267823 -13817.383167 -17223.831676      0.021450                    
P 13  -6236.581445 -20421.035092  15571.885590     93.001674                    
V 13   5876.162126 -19220.789618 -22795.727353     -0.037147                    
P 14  14829.526596   1291.923209 -21784.517340    218.402445                    
V 14  -4936.791949  27691.736977  -1852.570937     -0.005959                    
P 15  -2749.068014  26260.770925    817.233144   -130.835977                    
V 15  -3602.001493  -1381.933448  31434.120326     -0.017406                    
P 16  13094.930450  -7897.354273  21728.001172   -249.137712                    
V 16  21142.423645  17654.748522  -5989.319316      0.006027                    
P 17 -14673.592875  -3172.942149 -21694.159255     -8.190232                    
V 17   4247.708547 -27731.086033    941.127605     -0.038292                    
P 18  20706.722674  16880.025942   1784.997917    267.202398                    
V 18  -3529.980539   1829.518387  30647.723279      0.020064                    
P 19   8255.465364 -24580.889642   4462.021550   -394.289941                    
V 19   1799.239119   6365.092314  31414.281509     -0.028842                    
P 20  -9426.981829 -19808.316975 -15196.481346    113.782224                    
V 20  17379.389203   8260.848877 -21722.831466      0.023965                    
P 21  17814.583490   7568.764972  18972.489426   -312.038830                    
V 21 -20348.107768  10447.609230  14901.513283     -0.019369                    
P 22  23365.061347   8459.841826  -9377.046260    178.714927                    
V 22   7750.221532  10061.799276  27639.383109      0.018455                    
P 23  -1650.693635 -25433.410360   6757.994570     60.322914                    
V 23   4212.301982  -8119.397130 -30296.474339     -0.035169                    
P 24  -6291.490044  17435.697436 -19016.133831    -11.298688                    
V 24 -22619.243280   8570.210993  15391.680565     -0.007332                    
P 25  16074.886816  19249.144472  -8958.750205    131.639265                    
V 25 -10340.593357  -4905.149819 -29192.278343      0.048329                    
P 26 -12604.191150  19128.618283  12518.532823    128.674203                    
V 26   1265.085841 -17131.459421  26445.209815      0.172021                    
P 27  12393.421389 -18231.908341  14797.051633    -20.007954                    
V 27     23.858447  18924.375094  23292.888953     -0.049068                    
P 28 -22236.560606 -12895.576988  -6444.332400    281.664471                    
V 28  -5588.614368  -7201.686614  30734.990139      0.032212                    
P 29   6011.131122  21983.499318  13719.088168    459.644663                    
V 29  -4758.688890  16772.736313 -24825.897694      0.031378                    
P 31  25322.399335  -6294.678382  -5536.860848    322.657062                    
V 31  -5925.884564   4485.530427 -30975.400649      0.009762                    
P 32    617.685477 -18082.252362 -19489.636869   -556.082148                    
V 32  19434.387835  15595.150428 -13244.398655      0.014484                    
EOF
